{
  "norad_id": 65371,
  "name": "STARLINK-34869",
  "history": [
    {
      "epoch": "2026-03-28T16:24:53.121888",
      "apogee_km": 476.60944022462627,
      "perigee_km": 473.7886071172825,
      "latitude_deg": 47.66904176641104,
      "longitude_deg": 62.75902431993745,
      "semi_major_axis_km": 6853.336023670954,
      "eccentricity": 0.0002058,
      "inclination_deg": 53.1598,
      "raan_deg": 79.9241,
      "arg_perigee_deg": 90.1627,
      "mean_anomaly_deg": 269.9609,
      "mean_motion_rev_day": 15.30205374
    },
    {
      "epoch": "2026-03-29T04:57:18.459360",
      "apogee_km": 476.1451109970885,
      "perigee_km": 474.2330330229988,
      "latitude_deg": -43.691338369243994,
      "longitude_deg": 112.92051039985381,
      "semi_major_axis_km": 6853.326072010043,
      "eccentricity": 0.0001395,
      "inclination_deg": 53.1575,
      "raan_deg": 77.4968,
      "arg_perigee_deg": 96.5354,
      "mean_anomaly_deg": 263.5805,
      "mean_motion_rev_day": 15.30208707
    }
  ]
}